{
"type": "FeatureCollection",
"name": "output_locations",
"crs": { "type": "name", "properties": { "name": "urn:ogc:def:crs:OGC:1.3:CRS84" } },
"features": [
{ "type": "Feature", "properties": { "Photo_no": "IMG_1.png", "GPSLocation": "12.0°13.0' 14.6\" N, 76.0°1.0' 17.43\" E", "Latitude": "12.0°13.0' 14.6\" N, ", "Longitude": "76.0°1.0' 17.43\" E", "Altitude": "848.01", "Date": "2020:06:13", "Time": "13:46:40" }, "geometry": { "type": "Point", "coordinates": [ 76.02150833333333, 12.220722222222223 ] } },
{ "type": "Feature", "properties": { "Photo_no": "IMG_9390.png", "GPSLocation": "12.0°2.0' 37.25\" N, 77.0°36.0' 36.8\" E", "Latitude": "12.0°2.0' 37.25\" N, ", "Longitude": "77.0°36.0' 36.8\" E", "Altitude": "893.85", "Date": "2020:09:19", "Time": "15:57:05" }, "geometry": { "type": "Point", "coordinates": [ 77.61022222222222, 12.043680555555556 ] } },
{ "type": "Feature", "properties": { "Photo_no": "IMG_9347.png", "GPSLocation": "12.0°15.0' 24.88\" N, 77.0°9.0' 48.13\" E", "Latitude": "12.0°15.0' 24.88\" N, ", "Longitude": "77.0°9.0' 48.13\" E", "Altitude": "635.79", "Date": "2020:09:19", "Time": "08:47:25" }, "geometry": { "type": "Point", "coordinates": [ 77.163369444444456, 12.256911111111112 ] } },
{ "type": "Feature", "properties": { "Photo_no": "IMG_11.png", "GPSLocation": "11.0°59.0' 7.27\" N, 76.0°3.0' 53.02\" E", "Latitude": "11.0°59.0' 7.27\" N, ", "Longitude": "76.0°3.0' 53.02\" E", "Altitude": "868.12", "Date": "2020:06:13", "Time": "18:40:49" }, "geometry": { "type": "Point", "coordinates": [ 76.064727777777776, 11.985352777777777 ] } },
{ "type": "Feature", "properties": { "Photo_no": "IMG_13.png", "GPSLocation": "11.0°57.0' 11.46\" N, 76.0°14.0' 53.27\" E", "Latitude": "11.0°57.0' 11.46\" N, ", "Longitude": "76.0°14.0' 53.27\" E", "Altitude": "733.43", "Date": "2020:06:14", "Time": "12:30:02" }, "geometry": { "type": "Point", "coordinates": [ 76.248130555555562, 11.953183333333333 ] } },
{ "type": "Feature", "properties": { "Photo_no": "IMG_2.png", "GPSLocation": "12.0°13.0' 1.85\" N, 76.0°0.0' 3.9\" E", "Latitude": "12.0°13.0' 1.85\" N, ", "Longitude": "76.0°0.0' 3.9\" E", "Altitude": "876.35", "Date": "2020:06:13", "Time": "13:54:09" }, "geometry": { "type": "Point", "coordinates": [ 76.001083333333327, 12.217180555555556 ] } },
{ "type": "Feature", "properties": { "Photo_no": "IMG_3.png", "GPSLocation": "12.0°13.0' 1.48\" N, 76.0°0.0' 3.85\" E", "Latitude": "12.0°13.0' 1.48\" N, ", "Longitude": "76.0°0.0' 3.85\" E", "Altitude": "874.45", "Date": "2020:06:13", "Time": "14:03:18" }, "geometry": { "type": "Point", "coordinates": [ 76.00106944444444, 12.217077777777778 ] } },
{ "type": "Feature", "properties": { "Photo_no": "IMG_12.png", "GPSLocation": "11.0°59.0' 7.29\" N, 76.0°3.0' 53.29\" E", "Latitude": "11.0°59.0' 7.29\" N, ", "Longitude": "76.0°3.0' 53.29\" E", "Altitude": "869.02", "Date": "2020:06:13", "Time": "18:44:41" }, "geometry": { "type": "Point", "coordinates": [ 76.064802777777771, 11.985358333333332 ] } },
{ "type": "Feature", "properties": { "Photo_no": "IMG_16.png", "GPSLocation": "11.0°51.0' 15.02\" N, 76.0°7.0' 26.7\" E", "Latitude": "11.0°51.0' 15.02\" N, ", "Longitude": "76.0°7.0' 26.7\" E", "Altitude": "696.05", "Date": "2020:06:15", "Time": "08:37:04" }, "geometry": { "type": "Point", "coordinates": [ 76.124083333333331, 11.854172222222221 ] } },
{ "type": "Feature", "properties": { "Photo_no": "IMG_7.png", "GPSLocation": "12.0°1.0' 29.93\" N, 76.0°6.0' 14.99\" E", "Latitude": "12.0°1.0' 29.93\" N, ", "Longitude": "76.0°6.0' 14.99\" E", "Altitude": "814.36", "Date": "2020:06:13", "Time": "17:38:49" }, "geometry": { "type": "Point", "coordinates": [ 76.104163888888877, 12.024980555555556 ] } },
{ "type": "Feature", "properties": { "Photo_no": "IMG_9433.png", "GPSLocation": "12.0°0.0' 2.39\" N, 77.0°35.0' 45.05\" E", "Latitude": "12.0°0.0' 2.39\" N, ", "Longitude": "77.0°35.0' 45.05\" E", "Altitude": "917.10", "Date": "2020:09:19", "Time": "17:41:43" }, "geometry": { "type": "Point", "coordinates": [ 77.595847222222218, 12.000663888888889 ] } },
{ "type": "Feature", "properties": { "Photo_no": "IMG_9369.png", "GPSLocation": "12.0°1.0' 52.16\" N, 77.0°34.0' 44.44\" E", "Latitude": "12.0°1.0' 52.16\" N, ", "Longitude": "77.0°34.0' 44.44\" E", "Altitude": "1073.33", "Date": "2020:09:19", "Time": "13:10:05" }, "geometry": { "type": "Point", "coordinates": [ 77.5790111111111, 12.031155555555557 ] } },
{ "type": "Feature", "properties": { "Photo_no": "IMG_6.png", "GPSLocation": "12.0°1.0' 28.15\" N, 76.0°6.0' 14.25\" E", "Latitude": "12.0°1.0' 28.15\" N, ", "Longitude": "76.0°6.0' 14.25\" E", "Altitude": "824.79", "Date": "2020:06:13", "Time": "17:27:54" }, "geometry": { "type": "Point", "coordinates": [ 76.103958333333324, 12.024486111111113 ] } },
{ "type": "Feature", "properties": { "Photo_no": "IMG_15.png", "GPSLocation": "11.0°51.0' 8.16\" N, 76.0°7.0' 17.04\" E", "Latitude": "11.0°51.0' 8.16\" N, ", "Longitude": "76.0°7.0' 17.04\" E", "Altitude": "694.87", "Date": "2020:06:14", "Time": "15:44:39" }, "geometry": { "type": "Point", "coordinates": [ 76.1214, 11.852266666666667 ] } },
{ "type": "Feature", "properties": { "Photo_no": "IMG_4.png", "GPSLocation": "12.0°13.0' 1.97\" N, 76.0°0.0' 4.31\" E", "Latitude": "12.0°13.0' 1.97\" N, ", "Longitude": "76.0°0.0' 4.31\" E", "Altitude": "885.83", "Date": "2020:06:13", "Time": "14:06:13" }, "geometry": { "type": "Point", "coordinates": [ 76.001197222222217, 12.217213888888889 ] } },
{ "type": "Feature", "properties": { "Photo_no": "IMG_14.png", "GPSLocation": "11.0°57.0' 10.84\" N, 76.0°14.0' 52.94\" E", "Latitude": "11.0°57.0' 10.84\" N, ", "Longitude": "76.0°14.0' 52.94\" E", "Altitude": "727.15", "Date": "2020:06:14", "Time": "12:34:05" }, "geometry": { "type": "Point", "coordinates": [ 76.248038888888885, 11.95301111111111 ] } },
{ "type": "Feature", "properties": { "Photo_no": "IMG_9519.png", "GPSLocation": "12.0°3.0' 12.04\" N, 77.0°41.0' 24.67\" E", "Latitude": "12.0°3.0' 12.04\" N, ", "Longitude": "77.0°41.0' 24.67\" E", "Altitude": "289.30", "Date": "2020:09:20", "Time": "08:53:27" }, "geometry": { "type": "Point", "coordinates": [ 77.690186111111117, 12.053344444444445 ] } },
{ "type": "Feature", "properties": { "Photo_no": "IMG_9530.png", "GPSLocation": "12.0°3.0' 9.78\" N, 77.0°41.0' 54.22\" E", "Latitude": "12.0°3.0' 9.78\" N, ", "Longitude": "77.0°41.0' 54.22\" E", "Altitude": "276.37", "Date": "2020:09:20", "Time": "10:42:16" }, "geometry": { "type": "Point", "coordinates": [ 77.698394444444446, 12.052716666666667 ] } },
{ "type": "Feature", "properties": { "Photo_no": "IMG_1825.png", "GPSLocation": "12.0°56.0' 6.17\" N, 77.0°30.0' 56.44\" E", "Latitude": "12.0°56.0' 6.17\" N, ", "Longitude": "77.0°30.0' 56.44\" E", "Altitude": "897.50", "Date": "2021:07:03", "Time": "07:54:41" }, "geometry": { "type": "Point", "coordinates": [ 77.515677777777782, 12.935047222222222 ] } },
{ "type": "Feature", "properties": { "Photo_no": "IMG_19.png", "GPSLocation": "11.0°56.0' 26.95\" N, 76.0°12.0' 30.61\" E", "Latitude": "11.0°56.0' 26.95\" N, ", "Longitude": "76.0°12.0' 30.61\" E", "Altitude": "737.11", "Date": "2020:06:14", "Time": "13:17:35" }, "geometry": { "type": "Point", "coordinates": [ 76.208502777777781, 11.940819444444445 ] } },
{ "type": "Feature", "properties": { "Photo_no": "IMG_8.png", "GPSLocation": "12.0°1.0' 29.27\" N, 76.0°6.0' 15.79\" E", "Latitude": "12.0°1.0' 29.27\" N, ", "Longitude": "76.0°6.0' 15.79\" E", "Altitude": "825.24", "Date": "2020:06:13", "Time": "17:52:26" }, "geometry": { "type": "Point", "coordinates": [ 76.104386111111111, 12.024797222222222 ] } },
{ "type": "Feature", "properties": { "Photo_no": "IMG_9.png", "GPSLocation": "12.0°1.0' 29.21\" N, 76.0°6.0' 15.62\" E", "Latitude": "12.0°1.0' 29.21\" N, ", "Longitude": "76.0°6.0' 15.62\" E", "Altitude": "819.98", "Date": "2020:06:13", "Time": "17:52:35" }, "geometry": { "type": "Point", "coordinates": [ 76.10433888888889, 12.024780555555557 ] } },
{ "type": "Feature", "properties": { "Photo_no": "IMG_24.png", "GPSLocation": "11.0°51.0' 30.12\" N, 76.0°7.0' 16.32\" E", "Latitude": "11.0°51.0' 30.12\" N, ", "Longitude": "76.0°7.0' 16.32\" E", "Altitude": "711.30", "Date": "2020:06:14", "Time": "15:01:03" }, "geometry": { "type": "Point", "coordinates": [ 76.1212, 11.858366666666667 ] } },
{ "type": "Feature", "properties": { "Photo_no": "IMG_26.png", "GPSLocation": "11.0°55.0' 57.01\" N, 76.0°11.0' 38.48\" E", "Latitude": "11.0°55.0' 57.01\" N, ", "Longitude": "76.0°11.0' 38.48\" E", "Altitude": "714.02", "Date": "2020:06:15", "Time": "12:01:42" }, "geometry": { "type": "Point", "coordinates": [ 76.19402222222223, 11.932502777777778 ] } },
{ "type": "Feature", "properties": { "Photo_no": "IMG_9358.png", "GPSLocation": "12.0°3.0' 31.2\" N, 77.0°33.0' 52.39\" E", "Latitude": "12.0°3.0' 31.2\" N, ", "Longitude": "77.0°33.0' 52.39\" E", "Altitude": "921.54", "Date": "2020:09:19", "Time": "10:39:44" }, "geometry": { "type": "Point", "coordinates": [ 77.564552777777777, 12.058666666666667 ] } },
{ "type": "Feature", "properties": { "Photo_no": "IMG_23.png", "GPSLocation": "11.0°51.0' 30.96\" N, 76.0°7.0' 16.79\" E", "Latitude": "11.0°51.0' 30.96\" N, ", "Longitude": "76.0°7.0' 16.79\" E", "Altitude": "713.97", "Date": "2020:06:14", "Time": "14:53:04" }, "geometry": { "type": "Point", "coordinates": [ 76.121330555555545, 11.8586 ] } },
{ "type": "Feature", "properties": { "Photo_no": "IMG_22.png", "GPSLocation": "11.0°52.0' 18.46\" N, 76.0°9.0' 7.06\" E", "Latitude": "11.0°52.0' 18.46\" N, ", "Longitude": "76.0°9.0' 7.06\" E", "Altitude": "691.94", "Date": "2020:06:14", "Time": "14:39:39" }, "geometry": { "type": "Point", "coordinates": [ 76.15196111111112, 11.871794444444445 ] } },
{ "type": "Feature", "properties": { "Photo_no": "IMG_20.png", "GPSLocation": "11.0°52.0' 19.46\" N, 76.0°9.0' 36.23\" E", "Latitude": "11.0°52.0' 19.46\" N, ", "Longitude": "76.0°9.0' 36.23\" E", "Altitude": "697.96", "Date": "2020:06:14", "Time": "14:15:07" }, "geometry": { "type": "Point", "coordinates": [ 76.160063888888899, 11.872072222222222 ] } },
{ "type": "Feature", "properties": { "Photo_no": "IMG_9362.png", "GPSLocation": "11.0°59.0' 49.18\" N, 77.0°33.0' 7.54\" E", "Latitude": "11.0°59.0' 49.18\" N, ", "Longitude": "77.0°33.0' 7.54\" E", "Altitude": "975.79", "Date": "2020:09:19", "Time": "12:13:37" }, "geometry": { "type": "Point", "coordinates": [ 77.552094444444435, 11.996994444444443 ] } },
{ "type": "Feature", "properties": { "Photo_no": "IMG_9377.png", "GPSLocation": "12.0°2.0' 37.93\" N, 77.0°36.0' 37.13\" E", "Latitude": "12.0°2.0' 37.93\" N, ", "Longitude": "77.0°36.0' 37.13\" E", "Altitude": "891.48", "Date": "2020:09:19", "Time": "15:17:10" }, "geometry": { "type": "Point", "coordinates": [ 77.610313888888882, 12.043869444444445 ] } },
{ "type": "Feature", "properties": { "Photo_no": "IMG_21.png", "GPSLocation": "11.0°52.0' 19.78\" N, 76.0°9.0' 36.26\" E", "Latitude": "11.0°52.0' 19.78\" N, ", "Longitude": "76.0°9.0' 36.26\" E", "Altitude": "700.48", "Date": "2020:06:14", "Time": "14:31:38" }, "geometry": { "type": "Point", "coordinates": [ 76.160072222222226, 11.872161111111112 ] } },
{ "type": "Feature", "properties": { "Photo_no": "IMG_9571.png", "GPSLocation": "12.0°8.0' 14.56\" N, 77.0°44.0' 58.27\" E", "Latitude": "12.0°8.0' 14.56\" N, ", "Longitude": "77.0°44.0' 58.27\" E", "Altitude": "254.32", "Date": "2020:09:20", "Time": "14:15:02" }, "geometry": { "type": "Point", "coordinates": [ 77.749519444444445, 12.137377777777777 ] } }
]
}
